[{"OBJECT_NAME":"SHIYAN-6 01 (SY-6 01)","OBJECT_ID":"2018-094B","EPOCH":"2026-03-09T23:04:36.967872","MEAN_MOTION":15.28649156,"ECCENTRICITY":0.00144834,"INCLINATION":97.3669,"RA_OF_ASC_NODE":84.0964,"ARG_OF_PERICENTER":135.6758,"MEAN_ANOMALY":224.5644,"EPHEMERIS_TYPE":0,"CLASSIFICATION_TYPE":"U","NORAD_CAT_ID":43711,"ELEMENT_SET_NO":999,"REV_AT_EPOCH":40632,"BSTAR":0.00024768444,"MEAN_MOTION_DOT":6.847e-5,"MEAN_MOTION_DDOT":0},{"OBJECT_NAME":"STARLINK-35874","OBJECT_ID":"2025-288D","EPOCH":"2026-03-09T05:45:41.692896","MEAN_MOTION":15.27570001,"ECCENTRICITY":0.00018406,"INCLINATION":43.0023,"RA_OF_ASC_NODE":26.4182,"ARG_OF_PERICENTER":276.9906,"MEAN_ANOMALY":83.0737,"EPHEMERIS_TYPE":0,"CLASSIFICATION_TYPE":"U","NORAD_CAT_ID":66962,"ELEMENT_SET_NO":999,"REV_AT_EPOCH":1521,"BSTAR":0.00086913696,"MEAN_MOTION_DOT":0.00023725,"MEAN_MOTION_DDOT":0}]
